{
  "type": "FeatureCollection",
  "features": [
    {
      "type": "Feature",
      "properties": {
        "norad_id": 36996,
        "name": "FENGYUN 1C DEB",
        "group": "fengyun-1c-debris",
        "lat": 52.71017640715734,
        "lon": -16.107396883028265,
        "alt_km": 1033.2699132001344,
        "timestamp": "2025-12-27T22:26:48.891571+00:00",
        "meta_object_name": "FENGYUN 1C DEB",
        "meta_object_id": "1999-025ECC",
        "meta_epoch": "2025-12-26T05:36:21.178080",
        "meta_mean_motion": 14.11586953,
        "meta_eccentricity": 0.02549,
        "meta_inclination": 98.2295,
        "meta_ra_of_asc_node": 151.3743,
        "meta_arg_of_pericenter": 309.9457,
        "meta_mean_anomaly": 173.8447,
        "meta_ephemeris_type": 0,
        "meta_classification_type": "U",
        "meta_norad_cat_id": 36996,
        "meta_element_set_no": 999,
        "meta_rev_at_epoch": 59882,
        "meta_bstar": 0.00096064,
        "meta_mean_motion_dot": 2.326e-05,
        "meta_mean_motion_ddot": 0,
        "tle_line1": "1 36996U 99025ECC 25360.23357845  .00002326  00000+0  96064-3 0  9991",
        "tle_line2": "2 36996  98.2295 151.3743 0254900 309.9457 173.8447 14.11586953598820"
      },
      "geometry": {
        "type": "Point",
        "coordinates": [
          -16.107396883028265,
          52.71017640715734
        ]
      }
    },
    {
      "type": "Feature",
      "properties": {
        "norad_id": 37003,
        "name": "FENGYUN 1C DEB",
        "group": "fengyun-1c-debris",
        "lat": 59.190619873331784,
        "lon": 9.829003822510655,
        "alt_km": 865.4731813595372,
        "timestamp": "2025-12-27T22:26:48.891581+00:00",
        "meta_object_name": "FENGYUN 1C DEB",
        "meta_object_id": "1999-025ECK",
        "meta_epoch": "2025-12-26T20:57:12.153312",
        "meta_mean_motion": 13.96245393,
        "meta_eccentricity": 0.00970917,
        "meta_inclination": 98.8449,
        "meta_ra_of_asc_node": 23.944,
        "meta_arg_of_pericenter": 123.6459,
        "meta_mean_anomaly": 1.3788,
        "meta_ephemeris_type": 0,
        "meta_classification_type": "U",
        "meta_norad_cat_id": 37003,
        "meta_element_set_no": 999,
        "meta_rev_at_epoch": 60854,
        "meta_bstar": 0.00078031534,
        "meta_mean_motion_dot": 1.076e-05,
        "meta_mean_motion_ddot": 0,
        "tle_line1": "1 37003U 99025ECK 25360.87305733  .00001076  00000+0  78032-3 0  9996",
        "tle_line2": "2 37003  98.8449  23.9440 0097091 123.6459   1.3788 13.96245393608540"
      },
      "geometry": {
        "type": "Point",
        "coordinates": [
          9.829003822510655,
          59.190619873331784
        ]
      }
    },
    {
      "type": "Feature",
      "properties": {
        "norad_id": 37006,
        "name": "FENGYUN 1C DEB",
        "group": "fengyun-1c-debris",
        "lat": 23.15304239910962,
        "lon": -111.96030049369695,
        "alt_km": 909.7553334903132,
        "timestamp": "2025-12-27T22:26:48.891590+00:00",
        "meta_object_name": "FENGYUN 1C DEB",
        "meta_object_id": "1999-025ECN",
        "meta_epoch": "2025-12-26T23:07:52.665600",
        "meta_mean_motion": 14.49003217,
        "meta_eccentricity": 0.0255175,
        "meta_inclination": 99.2978,
        "meta_ra_of_asc_node": 250.9863,
        "meta_arg_of_pericenter": 205.7193,
        "meta_mean_anomaly": 153.1126,
        "meta_ephemeris_type": 0,
        "meta_classification_type": "U",
        "meta_norad_cat_id": 37006,
        "meta_element_set_no": 999,
        "meta_rev_at_epoch": 65320,
        "meta_bstar": 0.00071956,
        "meta_mean_motion_dot": 4.069e-05,
        "meta_mean_motion_ddot": 0,
        "tle_line1": "1 37006U 99025ECN 25360.96380400  .00004069  00000+0  71956-3 0  9996",
        "tle_line2": "2 37006  99.2978 250.9863 0255175 205.7193 153.1126 14.49003217653203"
      },
      "geometry": {
        "type": "Point",
        "coordinates": [
          -111.96030049369695,
          23.15304239910962
        ]
      }
    },
    {
      "type": "Feature",
      "properties": {
        "norad_id": 37008,
        "name": "FENGYUN 1C DEB",
        "group": "fengyun-1c-debris",
        "lat": -13.680758006691516,
        "lon": 123.21251845803071,
        "alt_km": 902.5354052350394,
        "timestamp": "2025-12-27T22:26:48.891600+00:00",
        "meta_object_name": "FENGYUN 1C DEB",
        "meta_object_id": "1999-025ECQ",
        "meta_epoch": "2025-12-27T02:02:49.555392",
        "meta_mean_motion": 14.07984222,
        "meta_eccentricity": 0.00628874,
        "meta_inclination": 99.1355,
        "meta_ra_of_asc_node": 120.1079,
        "meta_arg_of_pericenter": 214.1348,
        "meta_mean_anomaly": 145.577,
        "meta_ephemeris_type": 0,
        "meta_classification_type": "U",
        "meta_norad_cat_id": 37008,
        "meta_element_set_no": 999,
        "meta_rev_at_epoch": 60516,
        "meta_bstar": 0.0011115818,
        "meta_mean_motion_dot": 1.878e-05,
        "meta_mean_motion_ddot": 0,
        "tle_line1": "1 37008U 99025ECQ 25361.08529578  .00001878  00000+0  11116-2 0  9999",
        "tle_line2": "2 37008  99.1355 120.1079 0062887 214.1348 145.5770 14.07984222605162"
      },
      "geometry": {
        "type": "Point",
        "coordinates": [
          123.21251845803071,
          -13.680758006691516
        ]
      }
    },
    {
      "type": "Feature",
      "properties": {
        "norad_id": 37017,
        "name": "FENGYUN 1C DEB",
        "group": "fengyun-1c-debris",
        "lat": -55.09986380676224,
        "lon": -40.29012134921615,
        "alt_km": 569.318661839754,
        "timestamp": "2025-12-27T22:26:48.891610+00:00",
        "meta_object_name": "FENGYUN 1C DEB",
        "meta_object_id": "1999-025ECZ",
        "meta_epoch": "2025-12-25T14:01:57.704160",
        "meta_mean_motion": 14.40919347,
        "meta_eccentricity": 0.0281,
        "meta_inclination": 98.792,
        "meta_ra_of_asc_node": 304.4725,
        "meta_arg_of_pericenter": 327.0532,
        "meta_mean_anomaly": 31.341,
        "meta_ephemeris_type": 0,
        "meta_classification_type": "U",
        "meta_norad_cat_id": 37017,
        "meta_element_set_no": 999,
        "meta_rev_at_epoch": 61346,
        "meta_bstar": 0.0020644,
        "meta_mean_motion_dot": 0.00010567,
        "meta_mean_motion_ddot": 0,
        "tle_line1": "1 37017U 99025ECZ 25359.58469565  .00010567  00000+0  20644-2 0  9991",
        "tle_line2": "2 37017  98.7920 304.4725 0281000 327.0532  31.3410 14.40919347613467"
      },
      "geometry": {
        "type": "Point",
        "coordinates": [
          -40.29012134921615,
          -55.09986380676224
        ]
      }
    },
    {
      "type": "Feature",
      "properties": {
        "norad_id": 37021,
        "name": "FENGYUN 1C DEB",
        "group": "fengyun-1c-debris",
        "lat": -54.888841646482305,
        "lon": 30.224476632053722,
        "alt_km": 805.3989829737138,
        "timestamp": "2025-12-27T22:26:48.891620+00:00",
        "meta_object_name": "FENGYUN 1C DEB",
        "meta_object_id": "1999-025EDD",
        "meta_epoch": "2025-12-26T06:46:16.178880",
        "meta_mean_motion": 14.3232966,
        "meta_eccentricity": 0.0175992,
        "meta_inclination": 98.3848,
        "meta_ra_of_asc_node": 16.5161,
        "meta_arg_of_pericenter": 211.6097,
        "meta_mean_anomaly": 211.2518,
        "meta_ephemeris_type": 0,
        "meta_classification_type": "U",
        "meta_norad_cat_id": 37021,
        "meta_element_set_no": 999,
        "meta_rev_at_epoch": 70248,
        "meta_bstar": 0.00068524,
        "meta_mean_motion_dot": 2.15e-05,
        "meta_mean_motion_ddot": 0,
        "tle_line1": "1 37021U 99025EDD 25360.28213170  .00002150  00000+0  68524-3 0  9993",
        "tle_line2": "2 37021  98.3848  16.5161 0175992 211.6097 211.2518 14.32329660702481"
      },
      "geometry": {
        "type": "Point",
        "coordinates": [
          30.224476632053722,
          -54.888841646482305
        ]
      }
    },
    {
      "type": "Feature",
      "properties": {
        "norad_id": 37028,
        "name": "FENGYUN 1C DEB",
        "group": "fengyun-1c-debris",
        "lat": 27.0629373761775,
        "lon": 95.17880037374482,
        "alt_km": 817.2756740361328,
        "timestamp": "2025-12-27T22:26:48.891630+00:00",
        "meta_object_name": "FENGYUN 1C DEB",
        "meta_object_id": "1999-025EDL",
        "meta_epoch": "2025-12-27T11:36:36.020736",
        "meta_mean_motion": 14.22848346,
        "meta_eccentricity": 0.0034462,
        "meta_inclination": 99.2459,
        "meta_ra_of_asc_node": 269.9313,
        "meta_arg_of_pericenter": 57.315,
        "meta_mean_anomaly": 303.1342,
        "meta_ephemeris_type": 0,
        "meta_classification_type": "U",
        "meta_norad_cat_id": 37028,
        "meta_element_set_no": 999,
        "meta_rev_at_epoch": 60685,
        "meta_bstar": 0.0020044,
        "meta_mean_motion_dot": 4.483e-05,
        "meta_mean_motion_ddot": 0,
        "tle_line1": "1 37028U 99025EDL 25361.48375024  .00004483  00000+0  20044-2 0  9995",
        "tle_line2": "2 37028  99.2459 269.9313 0034462  57.3150 303.1342 14.22848346606856"
      },
      "geometry": {
        "type": "Point",
        "coordinates": [
          95.17880037374482,
          27.0629373761775
        ]
      }
    }
  ]
}